INMARSAT GX5            
1 44801U 19080B   26169.18411852  .00000069  00000+0  00000+0 0  9992
2 44801   0.0348 358.9552 0002317 103.5149 241.2821  1.00273425  6793
JCSAT-18 (KACIFIC 1)    
1 44868U 19091A   26169.51919975 -.00000208  00000+0  00000+0 0  9999
2 44868   0.0372 210.8861 0000361  50.7612 342.0047  1.00268694 24025
ELEKTRO-L 3             
1 44903U 19095A   26169.62481804 -.00000102  00000+0  00000+0 0  9993
2 44903   0.2617  81.4848 0000942 353.1566 133.1087  1.00271395 23720
SHIJIAN-20 (SJ-20)      
1 44910U 19097A   26168.26405454  .00000128  00000+0  00000+0 0  9996
2 44910   4.9197  75.0598 0014479  55.6109 274.8205  1.00273013 23690
TJS-5                   
1 44978U 20002A   26169.11850215 -.00000348  00000+0  00000+0 0  9997
2 44978   0.0098 351.4479 0007615  56.6569   8.4175  1.00272003 23713
GSAT-30                 
1 45026U 20005A   26169.55488853 -.00000170  00000+0  00000+0 0  9991
2 45026   0.0289 259.8845 0003224 181.1742 108.4788  1.00269057 23522
EUTELSAT KONNECT        
1 45027U 20005B   26169.53976662  .00000043  00000+0  00000+0 0  9998
2 45027   0.0735  95.3855 0001310 137.6450 235.2733  1.00268521 24355
JCSAT-17                
1 45245U 20013A   26169.55703291 -.00000324  00000+0  00000+0 0  9990
2 45245   5.3922 356.8947 0002557  87.2188 159.2306  1.00271062 23244
GEO-KOMPSAT-2B          
1 45246U 20013B   26169.56384889 -.00000350  00000+0  00000+0 0  9999
2 45246   0.0465 193.4841 0000730  74.1044 330.4536  1.00269273 23298
BEIDOU-3 G2             
1 45344U 20017A   26169.62559804 -.00000148  00000+0  00000+0 0  9995
2 45344   2.8678  47.3716 0002020  33.4481 131.3385  1.00271793 23276
AEHF-6 (USA 298)        
1 45465U 20022B   26169.56566890 -.00000304  00000+0  00000+0 0  9995
2 45465   2.5445 301.1829 0043098  17.0723 289.9637  1.00270891 23023
BEIDOU-3 G3             
1 45807U 20040A   26169.63157807 -.00000360  00000+0  00000+0 0  9999
2 45807   2.4515  67.4513 0002350 336.6130 200.6405  1.00265631 22084
APSTAR-6D               
1 45863U 20045A   26169.20842084 -.00000323  00000+0  00000+0 0  9996
2 45863   0.0507  93.7298 0002272 351.0752  30.7172  1.00271950 21877
KOREASAT 116            
1 45920U 20048A   26169.62194676 -.00000368  00000+0  00000+0 0  9995
2 45920   0.0183 302.1430 0000852 177.4504 127.3494  1.00268454 21654
EXPRESS 103             
1 45985U 20053A   26169.62880472 -.00000287  00000+0  00000+0 0  9998
2 45985   0.0121 293.1489 0000488 355.8508 300.7353  1.00271616 21667
EXPRESS 80              
1 45986U 20053B   26169.03816006  .00000000  00000+0  00000+0 0  9998
2 45986   0.0243 318.7050 0001740 214.6743 186.6231  1.00270069 21630
BSAT-4B                 
1 46112U 20056A   26169.62037891 -.00000356  00000+0  00000+0 0  9990
2 46112   0.0546 142.7613 0004003 332.1730 125.0852  1.00271032 21407
MEV-2                   
1 46113U 20056B   26169.39565120 -.00000018  00000+0  00000+0 0  9991
2 46113   0.0174 304.7073 0000025 284.0787 179.2747  1.00270100 80563
GALAXY 30 (G-30)        
1 46114U 20056C   26169.58499566  .00000031  00000+0  00000+0 0  9997
2 46114   0.0005 358.2439 0002143  87.8738 266.2948  1.00272092 21304
GAOFEN-13 01            
1 46610U 20071A   26169.63322475 -.00000369  00000+0  00000+0 0  9990
2 46610   0.5261  84.8374 0041379 123.6649  44.5374  1.00269853 20937
TIANTONG-1 2            
1 46916U 20082A   26169.63443808 -.00000362  00000+0  00000+0 0  9998
2 46916   0.7880 327.7799 0001007 108.4682 183.9357  1.00268655 20665
LUCAS (JDRS-1)          
1 47202U 20089A   26169.64496116 -.00000241  00000+0  00000+0 0  9991
2 47202   0.0542 273.7469 0002294 149.8615 166.2495  1.00269504 20436
SXM-7                   
1 47240U 20096A   26169.59288236 -.00000211  00000+0  00000+0 0  9994
2 47240   0.0317  97.5874 0003739  25.9654 271.5528  1.00271782  7457
CMS-01                  
1 47256U 20099A   26169.55488853 -.00000171  00000+0  00000+0 0  9992
2 47256   0.1024  94.0595 0003612 182.0020 273.4832  1.00271897 20219
TURKSAT 5A              
1 47306U 21001A   26169.54453331  .00000148  00000+0  00000+0 0  9997
2 47306   0.0192  61.1305 0000254 286.3821 146.2307  1.00270221 19986
TIANTONG-1 3            
1 47321U 21003A   26169.41203567 -.00000160  00000+0  00000+0 0  9991
2 47321   1.7555 339.4100 0003005 113.1723  43.9300  1.00270129 19975
TJS-6                   
1 47613U 21010A   26169.57381560  .00000036  00000+0  00000+0 0  9991
2 47613   0.2468 264.1120 0002952 225.8165 161.9305  1.00269706 19822
SBIRS GEO-5 (USA 315)   
1 48618U 21042A   26169.48549279 -.00000275  00000+0  00000+0 0  9991
2 48618   5.1016 329.1464 0001339 119.5594  86.6019  1.00270914 18789
FENGYUN 4B              
1 48808U 21047A   26169.63045140 -.00000337  00000+0  00000+0 0  9991
2 48808   0.1574  77.6836 0005946 275.7723 245.0245  1.00276040 18585
SXM-8                   
1 48838U 21049A   26169.59288236 -.00000211  00000+0  00000+0 0  9997
2 48838   0.0190  19.6988 0005041  11.6111   3.8043  1.00270092 18597
TIANLIAN 1-05           
1 49011U 21063A   26169.61307579  .00000101  00000+0  00000+0 0  9999
2 49011   1.5985  80.6948 0000496 341.1606  82.5014  1.00271784 18098
STAR ONE D2             
1 49055U 21069A   26169.52459988  .00000000  00000+0  00000+0 0  9993
2 49055   0.0158 338.7903 0002223 133.2448 273.4828  1.00271938 17953
