OBJECT_NAME,OBJECT_ID,EPOCH,MEAN_MOTION,ECCENTRICITY,INCLINATION,RA_OF_ASC_NODE,ARG_OF_PERICENTER,MEAN_ANOMALY,EPHEMERIS_TYPE,CLASSIFICATION_TYPE,NORAD_CAT_ID,ELEMENT_SET_NO,REV_AT_EPOCH,BSTAR,MEAN_MOTION_DOT,MEAN_MOTION_DDOT
INMARSAT GX5,2019-080B,2026-06-18T04:25:07.840128,1.00273425,.00023171,0.0348,358.9552,103.5149,241.2821,0,U,44801,999,679,0,.69E-6,0
JCSAT-18 (KACIFIC 1),2019-091A,2026-06-18T12:27:38.858400,1.00268694,.00003616,0.0372,210.8861,50.7612,342.0047,0,U,44868,999,2402,0,-.208E-5,0
ELEKTRO-L 3,2019-095A,2026-06-18T14:59:44.278656,1.00271395,.00009422,0.2617,81.4848,353.1566,133.1087,0,U,44903,999,2372,0,-.102E-5,0
SHIJIAN-20 (SJ-20),2019-097A,2026-06-17T06:20:14.312256,1.00273013,.0014479,4.9197,75.0598,55.6109,274.8205,0,U,44910,999,2369,0,.128E-5,0
TJS-5,2020-002A,2026-06-18T02:50:38.585760,1.00272003,.0007615,0.0098,351.4479,56.6569,8.4175,0,U,44978,999,2371,0,-.348E-5,0
GSAT-30,2020-005A,2026-06-18T13:19:02.368992,1.00269057,.00032248,0.0289,259.8845,181.1742,108.4788,0,U,45026,999,2352,0,-.17E-5,0
EUTELSAT KONNECT,2020-005B,2026-06-18T12:57:15.835968,1.00268521,.00013109,0.0735,95.3855,137.6450,235.2733,0,U,45027,999,2435,0,.43E-6,0
JCSAT-17,2020-013A,2026-06-18T13:22:07.643424,1.00271062,.00025571,5.3922,356.8947,87.2188,159.2306,0,U,45245,999,2324,0,-.324E-5,0
GEO-KOMPSAT-2B,2020-013B,2026-06-18T13:31:56.544096,1.00269273,.00007309,0.0465,193.4841,74.1044,330.4536,0,U,45246,999,2329,0,-.35E-5,0
BEIDOU-3 G2,2020-017A,2026-06-18T15:00:51.670656,1.00271793,.00020207,2.8678,47.3716,33.4481,131.3385,0,U,45344,999,2327,0,-.148E-5,0
AEHF-6 (USA 298),2020-022B,2026-06-18T13:34:33.792960,1.00270891,.00430984,2.5445,301.1829,17.0723,289.9637,0,U,45465,999,2302,0,-.304E-5,0
BEIDOU-3 G3,2020-040A,2026-06-18T15:09:28.345248,1.00265631,.00023506,2.4515,67.4513,336.6130,200.6405,0,U,45807,999,2208,0,-.36E-5,0
APSTAR-6D,2020-045A,2026-06-18T05:00:07.560576,1.00271950,.00022729,0.0507,93.7298,351.0752,30.7172,0,U,45863,999,2187,0,-.323E-5,0
KOREASAT 116,2020-048A,2026-06-18T14:55:36.200064,1.00268454,.00008522,0.0183,302.1430,177.4504,127.3494,0,U,45920,999,2165,0,-.368E-5,0
EXPRESS 103,2020-053A,2026-06-18T15:05:28.727808,1.00271616,.00004882,0.0121,293.1489,355.8508,300.7353,0,U,45985,999,2166,0,-.287E-5,0
EXPRESS 80,2020-053B,2026-06-18T00:54:57.029184,1.00270069,.00017401,0.0243,318.7050,214.6743,186.6231,0,U,45986,999,2163,0,0,0
BSAT-4B,2020-056A,2026-06-18T14:53:20.737824,1.00271032,.00040035,0.0546,142.7613,332.1730,125.0852,0,U,46112,999,2140,0,-.356E-5,0
MEV-2,2020-056B,2026-06-18T09:29:44.263680,1.00270100,.00000252,0.0174,304.7073,284.0787,179.2747,0,U,46113,999,8056,0,-.18E-6,0
GALAXY 30 (G-30),2020-056C,2026-06-18T14:02:23.625024,1.00272092,.00021436,0.0005,358.2439,87.8738,266.2948,0,U,46114,999,2130,0,.31E-6,0
GAOFEN-13 01,2020-071A,2026-06-18T15:11:50.618400,1.00269853,.00413796,0.5261,84.8374,123.6649,44.5374,0,U,46610,999,2093,0,-.369E-5,0
TIANTONG-1 2,2020-082A,2026-06-18T15:13:35.450112,1.00268655,.00010072,0.7880,327.7799,108.4682,183.9357,0,U,46916,999,2066,0,-.362E-5,0
LUCAS (JDRS-1),2020-089A,2026-06-18T15:28:44.644224,1.00269504,.00022945,0.0542,273.7469,149.8615,166.2495,0,U,47202,999,2043,0,-.241E-5,0
SXM-7,2020-096A,2026-06-18T14:13:45.035904,1.00271782,.00037394,0.0317,97.5874,25.9654,271.5528,0,U,47240,999,745,0,-.211E-5,0
CMS-01,2020-099A,2026-06-18T13:19:02.368992,1.00271897,.00036129,0.1024,94.0595,182.0020,273.4832,0,U,47256,999,2021,0,-.171E-5,0
TURKSAT 5A,2021-001A,2026-06-18T13:04:07.677984,1.00270221,.00002548,0.0192,61.1305,286.3821,146.2307,0,U,47306,999,1998,0,.148E-5,0
TIANTONG-1 3,2021-003A,2026-06-18T09:53:19.881888,1.00270129,.0003005,1.7555,339.4100,113.1723,43.9300,0,U,47321,999,1997,0,-.16E-5,0
TJS-6,2021-010A,2026-06-18T13:46:17.667840,1.00269706,.00029528,0.2468,264.1120,225.8165,161.9305,0,U,47613,999,1982,0,.36E-6,0
SBIRS GEO-5 (USA 315),2021-042A,2026-06-18T11:39:06.577056,1.00270914,.00013399,5.1016,329.1464,119.5594,86.6019,0,U,48618,999,1878,0,-.275E-5,0
FENGYUN 4B,2021-047A,2026-06-18T15:07:51.000960,1.00276040,.00059461,0.1574,77.6836,275.7723,245.0245,0,U,48808,999,1858,0,-.337E-5,0
SXM-8,2021-049A,2026-06-18T14:13:45.035904,1.00270092,.00050415,0.0190,19.6988,11.6111,3.8043,0,U,48838,999,1859,0,-.211E-5,0
TIANLIAN 1-05,2021-063A,2026-06-18T14:42:49.748256,1.00271784,.0000496,1.5985,80.6948,341.1606,82.5014,0,U,49011,999,1809,0,.101E-5,0
STAR ONE D2,2021-069A,2026-06-18T12:35:25.429632,1.00271938,.00022238,0.0158,338.7903,133.2448,273.4828,0,U,49055,999,1795,0,0,0
